0 SL-14 DEB
1 17274U 86101J   13281.68972317  .00000481  00000-0  37600-3 0   358
2 17274 082.5313 351.5275 0033258 098.5654 028.9602 13.90060927354793
0 SL-14 DEB
1 17274U 86101J   13284.18939652  .00000539  00000-0  42244-3 0   366
2 17274 082.5312 349.5178 0033151 091.6796 297.6868 13.90064237355141
0 SL-14 DEB
1 17274U 86101J   13286.49956315  .00000537  00000-0  42092-3 0   377
2 17274 082.5307 347.6606 0033040 085.3236 338.1113 13.90066276355460
0 SL-14 DEB
1 17274U 86101J   13288.51555737  .00000707  00000-0  55811-3 0   388
2 17274 082.5302 346.0398 0032935 079.7317 346.5133 13.90069111355742
0 SL-14 DEB
1 17274U 86101J   13290.53130971  .00000613  00000-0  48246-3 0   393
2 17274 082.5298 344.4190 0032816 074.1400 353.7241 13.90072059356025
0 SL-14 DEB
1 17274U 86101J   13292.62984407  .00000649  00000-0  51150-3 0   405
2 17274 082.5297 342.7314 0032719 068.2855 055.2483 13.90074327356317
0 SL-14 DEB
1 17274U 86101J   13295.13066909  .00000657  00000-0  51800-3 0   414
2 17274 082.5297 340.7203 0032568 061.3003 329.9552 13.90077619356666
